NORAD_CAT_ID,OBJECT_NAME,OBJECT_TYPE,EPOCH,MEAN_MOTION,ECCENTRICITY,INCLINATION,RA_OF_ASC_NODE,ARG_OF_PERICENTER,MEAN_ANOMALY,BSTAR,MEAN_MOTION_DOT,MEAN_MOTION_DDOT,TLE_LINE0,TLE_LINE1,TLE_LINE2,SEMIMAJOR_AXIS,PERIOD,APOGEE,PERIGEE,DECAYED
52367.0,STARLINK-3817,PAYLOAD,2023-10-26 13:17:48,15.08844667,0.0001356,53.216,112.8664,89.0006,271.1141,0.00022531,3.3e-05,0.0,0 STARLINK-3817,1 52367U 22045AN  23299.55403136  .00003300  00000-0  22531-3 0  9990,2 52367  53.2160 112.8664 0001356  89.0006 271.1141 15.08844667 85311,6917.866,95.437,540.669,538.793,0.0
52367.0,STARLINK-3817,PAYLOAD,2023-10-26 19:39:20,15.08852452,0.0001284,53.216,111.6768,93.0541,267.0598,0.00024588,3.629e-05,0.0,0 STARLINK-3817,1 52367U 22045AN  23299.81898638  .00003629  00000-0  24588-3 0  9992,2 52367  53.2160 111.6768 0001284  93.0541 267.0598 15.08852452 85357,6917.842,95.437,540.596,538.819,0.0
52367.0,STARLINK-3817,PAYLOAD,2023-10-26 22:50:06,15.08855017,0.0001285,53.216,111.082,92.9474,267.1665,0.00027727,4.129e-05,0.0,0 STARLINK-3817,1 52367U 22045AN  23299.95146458  .00004129  00000-0  27727-3 0  9997,2 52367  53.2160 111.0820 0001285  92.9474 267.1665 15.08855017 85372,6917.834,95.437,540.588,538.811,0.0
52367.0,STARLINK-3817,PAYLOAD,2023-10-27 11:33:12,15.08844093,0.0001277,53.2159,108.7031,91.9542,268.1596,0.00018223,2.614e-05,0.0,0 STARLINK-3817,1 52367U 22045AN  23300.48138906  .00002614  00000-0  18223-3 0  9995,2 52367  53.2159 108.7031 0001277  91.9542 268.1596 15.08844093 85458,6917.868,95.437,540.616,538.849,0.0
52367.0,STARLINK-3817,PAYLOAD,2023-10-27 21:05:30,15.08850148,0.0001263,53.216,106.9185,92.233,267.8806,0.00017801,2.547e-05,0.0,0 STARLINK-3817,1 52367U 22045AN  23300.87882379  .00002547  00000-0  17801-3 0  9994,2 52367  53.2160 106.9185 0001263  92.2330 267.8806 15.08850148 85519,6917.849,95.437,540.588,538.841,0.0
52367.0,STARLINK-3817,PAYLOAD,2023-10-28 11:23:59,15.0883251,0.0001396,53.2156,104.2417,95.3964,264.7187,-8.7853e-05,-1.686e-05,0.0,0 STARLINK-3817,1 52367U 22045AN  23301.47499319 -.00001686  00000-0 -87853-4 0  9999,2 52367  53.2156 104.2417 0001396  95.3964 264.7187 15.08832510 85608,6917.903,95.438,540.734,538.803,0.0
52367.0,STARLINK-3817,PAYLOAD,2023-10-28 17:45:32,15.08835844,0.0001258,53.2175,103.0535,88.4563,271.6573,-3.5395e-05,-8.51e-06,0.0,0 STARLINK-3817,1 52367U 22045AN  23301.73995611 -.00000851  00000-0 -35395-4 0  9991,2 52367  53.2175 103.0535 0001258  88.4563 271.6573 15.08835844 85645,6917.893,95.438,540.628,538.888,0.0
52367.0,STARLINK-3817,PAYLOAD,2023-10-29 03:17:50,15.08842418,0.0001421,53.2181,101.2669,89.1727,270.9428,7.5985e-06,-1.67e-06,0.0,0 STARLINK-3817,1 52367U 22045AN  23302.13739152 -.00000167  00000-0  75985-5 0  9991,2 52367  53.2181 101.2669 0001421  89.1727 270.9428 15.08842418 85705,6917.873,95.437,540.721,538.755,0.0
52367.0,STARLINK-3817,PAYLOAD,2023-10-29 14:25:32,15.08849196,0.0001423,53.2164,99.184,87.368,272.7475,0.00010943,1.454e-05,0.0,0 STARLINK-3817,1 52367U 22045AN  23302.60106576  .00001454  00000-0  10943-3 0  9991,2 52367  53.2164  99.1840 0001423  87.3680 272.7475 15.08849196 85771,6917.852,95.437,540.702,538.733,0.0
52367.0,STARLINK-3817,PAYLOAD,2023-10-29 20:47:04,15.08858552,0.0001365,53.2168,97.9979,85.3505,274.7643,0.00030215,4.526e-05,0.0,0 STARLINK-3817,1 52367U 22045AN  23302.86602033  .00004526  00000-0  30215-3 0  9995,2 52367  53.2168  97.9979 0001365  85.3505 274.7643 15.08858552 85813,6917.824,95.436,540.633,538.744,0.0
52367.0,STARLINK-3817,PAYLOAD,2023-10-30 09:30:10,15.08834835,0.000132,53.2168,95.6196,72.9219,287.1917,4.351e-05,4.05e-06,0.0,0 STARLINK-3817,1 52367U 22045AN  23303.39595331  .00000405  00000-0  43510-4 0  9991,2 52367  53.2168  95.6196 0001320  72.9219 287.1917 15.08834835 85892,6917.896,95.438,540.674,538.848,0.0
52367.0,STARLINK-3817,PAYLOAD,2023-10-30 19:02:29,15.0884054,0.0001358,53.2167,93.8353,83.175,276.9397,8.5975e-05,1.081e-05,0.0,0 STARLINK-3817,1 52367U 22045AN  23303.79339175  .00001081  00000-0  85975-4 0  9999,2 52367  53.2167  93.8353 0001358  83.1750 276.9397 15.08840540 85956,6917.879,95.438,540.683,538.804,0.0
52367.0,STARLINK-3817,PAYLOAD,2023-10-31 14:07:06,15.08837708,0.0001419,53.217,90.2671,83.3114,276.8039,0.00028297,4.218e-05,0.0,0 STARLINK-3817,1 52367U 22045AN  23304.58827544  .00004218  00000-0  28297-3 0  9997,2 52367  53.2170  90.2671 0001419  83.3114 276.8039 15.08837708 86076,6917.887,95.438,540.734,538.771,0.0
52367.0,STARLINK-3817,PAYLOAD,2023-10-31 18:53:16,15.08842326,0.0001411,53.2173,89.375,79.3353,280.7798,0.00025803,3.821e-05,0.0,0 STARLINK-3817,1 52367U 22045AN  23304.78699433  .00003821  00000-0  25803-3 0  9992,2 52367  53.2173  89.3750 0001411  79.3353 280.7798 15.08842326 86100,6917.873,95.437,540.714,538.762,0.0
52367.0,STARLINK-3817,PAYLOAD,2023-11-01 09:11:44,15.08838239,0.0001304,53.2164,86.6987,84.2388,275.8753,0.00018931,2.726e-05,0.0,0 STARLINK-3817,1 52367U 22045AN  23305.38315703  .00002726  00000-0  18931-3 0  9991,2 52367  53.2164  86.6987 0001304  84.2388 275.8753 15.08838239 86199,6917.886,95.438,540.653,538.849,0.0
52367.0,STARLINK-3817,PAYLOAD,2023-11-01 13:57:54,15.08840257,0.0001356,53.2168,85.8065,83.2559,276.8587,0.00020255,2.937e-05,0.0,0 STARLINK-3817,1 52367U 22045AN  23305.58187696  .00002937  00000-0  20255-3 0  9997,2 52367  53.2168  85.8065 0001356  83.2559 276.8587 15.08840257 86220,6917.88,95.438,540.683,538.807,0.0
52367.0,STARLINK-3817,PAYLOAD,2023-11-01 17:08:40,15.08843768,0.0001371,53.217,85.2117,82.4097,277.7051,0.00024773,3.657e-05,0.0,0 STARLINK-3817,1 52367U 22045AN  23305.71435546  .00003657  00000-0  24773-3 0  9991,2 52367  53.2170  85.2117 0001371  82.4097 277.7051 15.08843768 86248,6917.869,95.437,540.682,538.785,0.0
52367.0,STARLINK-3817,PAYLOAD,2023-11-02 15:24:04,15.08845297,0.0001357,53.2171,81.0492,88.6186,271.4961,0.00018859,2.715e-05,0.0,0 STARLINK-3817,1 52367U 22045AN  23306.64171474  .00002715  00000-0  18859-3 0  9993,2 52367  53.2171  81.0492 0001357  88.6186 271.4961 15.08845297 86385,6917.864,95.437,540.668,538.79,0.0
52367.0,STARLINK-3817,PAYLOAD,2023-11-03 02:31:46,15.08828198,0.000135,53.2174,78.9676,81.6935,278.421,-9.7254e-05,-1.835e-05,0.0,0 STARLINK-3817,1 52367U 22045AN  23307.10540431 -.00001835  00000-0 -97254-4 0  9999,2 52367  53.2174  78.9676 0001350  81.6935 278.4210 15.08828198 86458,6917.916,95.438,540.715,538.848,0.0
52367.0,STARLINK-3817,PAYLOAD,2023-11-03 15:14:53,15.08809885,0.0001059,53.2183,76.5905,75.0427,285.0682,-0.00027212,-4.612e-05,0.0,0 STARLINK-3817,1 52367U 22045AN  23307.63534221 -.00004612  00000-0 -27212-3 0  9999,2 52367  53.2183  76.5905 0001059  75.0427 285.0682 15.08809885 86534,6917.972,95.439,540.57,539.105,0.0
52367.0,STARLINK-3817,PAYLOAD,2023-11-03 18:25:39,15.08817353,0.0001396,53.218,75.9927,96.1908,263.9243,-0.00019216,-3.343e-05,0.0,0 STARLINK-3817,1 52367U 22045AN  23307.76782078 -.00003343  00000-0 -19216-3 0  9993,2 52367  53.2180  75.9927 0001396  96.1908 263.9243 15.08817353 86559,6917.95,95.439,540.78,538.849,0.0
52367.0,STARLINK-3817,PAYLOAD,2023-11-04 08:44:07,15.0883849,8.99e-05,53.2186,73.3207,58.6275,301.4805,0.00025731,3.81e-05,0.0,0 STARLINK-3817,1 52367U 22045AN  23308.36397457  .00003810  00000-0  25731-3 0  9999,2 52367  53.2186  73.3207 0000899  58.6275 301.4805 15.08838490 86642,6917.885,95.438,540.372,539.128,0.0
52367.0,STARLINK-3817,PAYLOAD,2023-11-04 15:05:39,15.08858686,0.000132,53.2159,72.1285,77.9691,282.1449,0.00072997,0.00011354,0.0,0 STARLINK-3817,1 52367U 22045AN  23308.62892935  .00011354  00000-0  72997-3 0  9997,2 52367  53.2159  72.1285 0001320  77.9691 282.1449 15.08858686 86683,6917.823,95.436,540.601,538.775,0.0
52367.0,STARLINK-3817,PAYLOAD,2023-11-05 11:45:39,15.08855106,0.0001172,53.2172,68.262,72.4938,287.6182,0.00043898,6.708e-05,0.0,0 STARLINK-3817,1 52367U 22045AN  23309.49004504  .00006708  00000-0  43898-3 0  9995,2 52367  53.2172  68.2620 0001172  72.4938 287.6182 15.08855106 86819,6917.834,95.437,540.51,538.888,0.0
52367.0,STARLINK-3817,PAYLOAD,2023-11-05 14:56:25,15.08860396,0.0001138,53.2174,67.6659,76.1598,283.9521,0.00058647,9.063e-05,0.0,0 STARLINK-3817,1 52367U 22045AN  23309.62252093  .00009063  00000-0  58647-3 0  9993,2 52367  53.2174  67.6659 0001138  76.1598 283.9521 15.08860396 86836,6917.818,95.436,540.47,538.896,0.0
52367.0,STARLINK-3817,PAYLOAD,2023-11-06 00:28:43,15.08867939,0.0001181,53.218,65.8822,70.1963,289.9157,0.00032767,4.935e-05,0.0,0 STARLINK-3817,1 52367U 22045AN  23310.01995139  .00004935  00000-0  32767-3 0  9991,2 52367  53.2180  65.8822 0001181  70.1963 289.9157 15.08867939 86890,6917.795,95.436,540.477,538.843,0.0
52367.0,STARLINK-3817,PAYLOAD,2023-11-06 11:36:27,15.08803942,0.0001309,53.2177,63.801,78.4593,281.6546,-0.001146,-0.00018462,0.0,0 STARLINK-3817,1 52367U 22045AN  23310.48364920 -.00018462  00000-0 -11460-2 0  9998,2 52367  53.2177  63.8010 0001309  78.4593 281.6546 15.08803942 86968,6917.991,95.44,540.761,538.95,0.0
52367.0,STARLINK-3817,PAYLOAD,2023-11-06 14:47:14,15.088079,0.0001236,53.2173,63.2085,70.8132,289.2994,-0.00077052,-0.00012519,0.0,0 STARLINK-3817,1 52367U 22045AN  23310.61613697 -.00012519  00000-0 -77052-3 0  9998,2 52367  53.2173  63.2085 0001236  70.8132 289.2994 15.08807900 86985,6917.979,95.44,540.699,538.988,0.0
52367.0,STARLINK-3817,PAYLOAD,2023-11-07 00:19:33,15.08814996,0.0001438,53.2188,61.421,71.9358,288.1791,-0.0005722,-9.377e-05,0.0,0 STARLINK-3817,1 52367U 22045AN  23311.01357664 -.00009377  00000-0 -57220-3 0  9995,2 52367  53.2188  61.4210 0001438  71.9358 288.1791 15.08814996 87041,6917.957,95.439,540.817,538.827,0.0
52367.0,STARLINK-3817,PAYLOAD,2023-11-07 11:27:15,15.08822154,0.0001102,53.2176,59.3449,89.0662,271.0457,-0.00020774,-3.591e-05,0.0,0 STARLINK-3817,1 52367U 22045AN  23311.47725753 -.00003591  00000-0 -20774-3 0  9999,2 52367  53.2176  59.3449 0001102  89.0662 271.0457 15.08822154 87117,6917.935,95.439,540.562,539.038,0.0
